ONEWEB-0311             
1 49097U 21075Y   24321.14560477 -.00000002  00000+0 -37707-4 0  9991
2 49097  87.9077 121.0129 0001591 110.2764 249.8539 13.17648709157506
ONEWEB-0312             
1 49098U 21075Z   24321.46452671  .00000030  00000+0  44560-4 0  9997
2 49098  87.9078 120.9810 0001162 106.7967 253.3293 13.17648872158501
ONEWEB-0313             
1 49099U 21075AA  24321.16571909 -.00000012  00000+0 -63448-4 0  9999
2 49099  87.9071 121.0562 0001374 100.5263 259.6023 13.17650214157475
ONEWEB-0314             
1 49100U 21075AB  24321.20802785  .00000096  00000+0  21352-3 0  9993
2 49100  87.9072 120.9872 0001224 106.3898 253.7368 13.17645654157450
ONEWEB-0315             
1 49101U 21075AC  24321.48415282  .00000340  00000+0  90976-3 0  9996
2 49101  87.8854 105.6968 0001781 107.4948 252.6375 13.12444213160396
ONEWEB-0316             
1 49102U 21075AD  24321.13235497 -.00002282  00000+0 -58232-2 0  9994
2 49102  87.9099  90.4905 0001392 110.8896 249.2385 13.18667757161029
ONEWEB-0317             
1 49103U 21075AE  24321.40141804  .00000531  00000+0  14402-2 0  9997
2 49103  87.8855 105.7253 0001564  77.2417 282.8886 13.12445430160395
ONEWEB-0318             
1 49104U 21075AF  24321.28092581  .00000039  00000+0  65155-4 0  9997
2 49104  87.9095  90.4504 0001716 109.1985 250.9333 13.18688193161009
